{
  "type": "FeatureCollection",
  "features": [
    {
      "type": "Feature",
      "properties": {
        "norad_id": 66461,
        "name": "STARLINK-35132",
        "group": "last-30-days",
        "lat": 1.579499328319491,
        "lon": 73.37367541338106,
        "alt_km": 443.28760169443194,
        "timestamp": "2025-12-12T16:50:31.909785+00:00",
        "meta_object_name": "STARLINK-35132",
        "meta_object_id": "2025-262F",
        "meta_epoch": "2025-12-12T06:00:00.999648",
        "meta_mean_motion": 15.4065013,
        "meta_eccentricity": 0.00016233,
        "meta_inclination": 43.0004,
        "meta_ra_of_asc_node": 74.2818,
        "meta_arg_of_pericenter": 282.3995,
        "meta_mean_anomaly": 91.4064,
        "meta_ephemeris_type": 0,
        "meta_classification_type": "U",
        "meta_norad_cat_id": 66461,
        "meta_element_set_no": 999,
        "meta_rev_at_epoch": 555,
        "meta_bstar": 0.0019731087,
        "meta_mean_motion_dot": 0.00082881,
        "meta_mean_motion_ddot": 0,
        "tle_line1": "1 66461U 25262F   25346.25001157  .00082881  00000+0  19731-2 0  9990",
        "tle_line2": "2 66461  43.0004  74.2818 0001623 282.3995  91.4064 15.40650130  5550"
      },
      "geometry": {
        "type": "Point",
        "coordinates": [
          73.37367541338106,
          1.579499328319491
        ]
      }
    },
    {
      "type": "Feature",
      "properties": {
        "norad_id": 66462,
        "name": "STARLINK-35499",
        "group": "last-30-days",
        "lat": 9.974104679419101,
        "lon": 82.52504701350811,
        "alt_km": 442.9037025593234,
        "timestamp": "2025-12-12T16:50:31.909796+00:00",
        "meta_object_name": "STARLINK-35499",
        "meta_object_id": "2025-262G",
        "meta_epoch": "2025-12-12T06:00:00.999648",
        "meta_mean_motion": 15.40626232,
        "meta_eccentricity": 0.00013323,
        "meta_inclination": 43.0004,
        "meta_ra_of_asc_node": 74.2507,
        "meta_arg_of_pericenter": 249.0653,
        "meta_mean_anomaly": 137.1807,
        "meta_ephemeris_type": 0,
        "meta_classification_type": "U",
        "meta_norad_cat_id": 66462,
        "meta_element_set_no": 999,
        "meta_rev_at_epoch": 555,
        "meta_bstar": 0.0019974521,
        "meta_mean_motion_dot": 0.00083851,
        "meta_mean_motion_ddot": 0,
        "tle_line1": "1 66462U 25262G   25346.25001157  .00083851  00000+0  19975-2 0  9999",
        "tle_line2": "2 66462  43.0004  74.2507 0001332 249.0653 137.1807 15.40626232  5553"
      },
      "geometry": {
        "type": "Point",
        "coordinates": [
          82.52504701350811,
          9.974104679419101
        ]
      }
    },
    {
      "type": "Feature",
      "properties": {
        "norad_id": 66463,
        "name": "STARLINK-35463",
        "group": "last-30-days",
        "lat": 25.790144774413772,
        "lon": 102.82048295211128,
        "alt_km": 440.8372156387768,
        "timestamp": "2025-12-12T16:50:31.909807+00:00",
        "meta_object_name": "STARLINK-35463",
        "meta_object_id": "2025-262H",
        "meta_epoch": "2025-12-12T08:00:13.999968",
        "meta_mean_motion": 15.40801985,
        "meta_eccentricity": 0.00014278,
        "meta_inclination": 43.0008,
        "meta_ra_of_asc_node": 73.7096,
        "meta_arg_of_pericenter": 254.3693,
        "meta_mean_anomaly": 260.2859,
        "meta_ephemeris_type": 0,
        "meta_classification_type": "U",
        "meta_norad_cat_id": 66463,
        "meta_element_set_no": 999,
        "meta_rev_at_epoch": 557,
        "meta_bstar": -0.0042322569,
        "meta_mean_motion_dot": -0.0017372,
        "meta_mean_motion_ddot": 0,
        "tle_line1": "1 66463U 25262H   25346.33349537 -.00173720  00000+0 -42323-2 0  9996",
        "tle_line2": "2 66463  43.0008  73.7096 0001427 254.3693 260.2859 15.40801985  5570"
      },
      "geometry": {
        "type": "Point",
        "coordinates": [
          102.82048295211128,
          25.790144774413772
        ]
      }
    },
    {
      "type": "Feature",
      "properties": {
        "norad_id": 66464,
        "name": "STARLINK-35435",
        "group": "last-30-days",
        "lat": 18.159332513124042,
        "lon": 92.22548578416256,
        "alt_km": 441.89988433081453,
        "timestamp": "2025-12-12T16:50:31.909821+00:00",
        "meta_object_name": "STARLINK-35435",
        "meta_object_id": "2025-262J",
        "meta_epoch": "2025-12-12T08:00:13.999968",
        "meta_mean_motion": 15.40662699,
        "meta_eccentricity": 0.00017804,
        "meta_inclination": 43.0007,
        "meta_ra_of_asc_node": 73.7399,
        "meta_arg_of_pericenter": 259.1892,
        "meta_mean_anomaly": 243.0969,
        "meta_ephemeris_type": 0,
        "meta_classification_type": "U",
        "meta_norad_cat_id": 66464,
        "meta_element_set_no": 999,
        "meta_rev_at_epoch": 557,
        "meta_bstar": 0.00095177292,
        "meta_mean_motion_dot": 0.00039612,
        "meta_mean_motion_ddot": 0,
        "tle_line1": "1 66464U 25262J   25346.33349537  .00039612  00000+0  95177-3 0  9992",
        "tle_line2": "2 66464  43.0007  73.7399 0001780 259.1892 243.0969 15.40662699  5570"
      },
      "geometry": {
        "type": "Point",
        "coordinates": [
          92.22548578416256,
          18.159332513124042
        ]
      }
    },
    {
      "type": "Feature",
      "properties": {
        "norad_id": 66465,
        "name": "STARLINK-35448",
        "group": "last-30-days",
        "lat": 37.99655477958473,
        "lon": 128.48674814165153,
        "alt_km": 438.67587530976925,
        "timestamp": "2025-12-12T16:50:31.909832+00:00",
        "meta_object_name": "STARLINK-35448",
        "meta_object_id": "2025-262K",
        "meta_epoch": "2025-12-12T08:00:13.999968",
        "meta_mean_motion": 15.40674592,
        "meta_eccentricity": 0.00011438,
        "meta_inclination": 43.0007,
        "meta_ra_of_asc_node": 73.6487,
        "meta_arg_of_pericenter": 266.8897,
        "meta_mean_anomaly": 272.7018,
        "meta_ephemeris_type": 0,
        "meta_classification_type": "U",
        "meta_norad_cat_id": 66465,
        "meta_element_set_no": 999,
        "meta_rev_at_epoch": 557,
        "meta_bstar": 0.0010312316,
        "meta_mean_motion_dot": 0.0004298,
        "meta_mean_motion_ddot": 0,
        "tle_line1": "1 66465U 25262K   25346.33349537  .00042980  00000+0  10312-2 0  9992",
        "tle_line2": "2 66465  43.0007  73.6487 0001143 266.8897 272.7018 15.40674592  5570"
      },
      "geometry": {
        "type": "Point",
        "coordinates": [
          128.48674814165153,
          37.99655477958473
        ]
      }
    },
    {
      "type": "Feature",
      "properties": {
        "norad_id": 66466,
        "name": "STARLINK-35388",
        "group": "last-30-days",
        "lat": 41.63110474322051,
        "lon": 144.0082164723798,
        "alt_km": 438.34761964259906,
        "timestamp": "2025-12-12T16:50:31.909843+00:00",
        "meta_object_name": "STARLINK-35388",
        "meta_object_id": "2025-262L",
        "meta_epoch": "2025-12-12T06:00:00.999648",
        "meta_mean_motion": 15.40630604,
        "meta_eccentricity": 0.00013917,
        "meta_inclination": 43.0005,
        "meta_ra_of_asc_node": 74.0971,
        "meta_arg_of_pericenter": 262.0115,
        "meta_mean_anomaly": 186.4811,
        "meta_ephemeris_type": 0,
        "meta_classification_type": "U",
        "meta_norad_cat_id": 66466,
        "meta_element_set_no": 999,
        "meta_rev_at_epoch": 556,
        "meta_bstar": 0.0019232573,
        "meta_mean_motion_dot": 0.00080703,
        "meta_mean_motion_ddot": 0,
        "tle_line1": "1 66466U 25262L   25346.25001157  .00080703  00000+0  19233-2 0  9993",
        "tle_line2": "2 66466  43.0005  74.0971 0001391 262.0115 186.4811 15.40630604  5565"
      },
      "geometry": {
        "type": "Point",
        "coordinates": [
          144.0082164723798,
          41.63110474322051
        ]
      }
    },
    {
      "type": "Feature",
      "properties": {
        "norad_id": 66467,
        "name": "STARLINK-35682",
        "group": "last-30-days",
        "lat": 32.57370802769046,
        "lon": 114.8372063196142,
        "alt_km": 439.95192801568555,
        "timestamp": "2025-12-12T16:50:31.909854+00:00",
        "meta_object_name": "STARLINK-35682",
        "meta_object_id": "2025-262M",
        "meta_epoch": "2025-12-12T06:00:00.999648",
        "meta_mean_motion": 15.40742098,
        "meta_eccentricity": 0.00015987,
        "meta_inclination": 43.0006,
        "meta_ra_of_asc_node": 74.1593,
        "meta_arg_of_pericenter": 245.6927,
        "meta_mean_anomaly": 177.8882,
        "meta_ephemeris_type": 0,
        "meta_classification_type": "U",
        "meta_norad_cat_id": 66467,
        "meta_element_set_no": 999,
        "meta_rev_at_epoch": 555,
        "meta_bstar": -0.0014917593,
        "meta_mean_motion_dot": -0.000622,
        "meta_mean_motion_ddot": 0,
        "tle_line1": "1 66467U 25262M   25346.25001157 -.00062200  00000+0 -14918-2 0  9993",
        "tle_line2": "2 66467  43.0006  74.1593 0001598 245.6927 177.8882 15.40742098  5557"
      },
      "geometry": {
        "type": "Point",
        "coordinates": [
          114.8372063196142,
          32.57370802769046
        ]
      }
    }
  ]
}